ONEWEB-0435             
1 51632U 22012L   25006.78698166 -.00000640  00000+0 -18688-2 0  9992
2 51632  87.8916 141.1470 0001104 115.7088 244.4153 13.10375101141654
ONEWEB-0436             
1 51633U 22012M   25006.82267063 -.00000114  00000+0 -32700-3 0  9994
2 51633  87.9104 110.7166 0001571 115.9767 244.1526 13.17648407145657
ONEWEB-0438             
1 51634U 22012N   25006.77040857 -.00003241  00000+0 -93287-2 0  9999
2 51634  87.8916 141.1516 0001559  95.0851 265.0454 13.10343644141693
ONEWEB-0439             
1 51635U 22012P   25006.77370648 -.00000643  00000+0 -18778-2 0  9999
2 51635  87.8910 141.1365 0001456 103.7150 256.4140 13.10370642141666
ONEWEB-0442             
1 51636U 22012Q   25006.35947572  .00000095  00000+0  21259-3 0  9998
2 51636  87.9106 110.8504 0002258  93.0583 267.0807 13.17651239144296
ONEWEB-0443             
1 51637U 22012R   25006.53075364  .00000054  00000+0  10689-3 0  9990
2 51637  87.9109 110.8280 0001506  93.4378 266.6926 13.17651237144365
ONEWEB-0444             
1 51638U 22012S   25006.38196386 -.00000200  00000+0 -60918-3 0  9997
2 51638  87.8907 141.2257 0001332 104.1441 255.9835 13.10370280140344
ONEWEB-0445             
1 51639U 22012T   25006.40353482 -.00000367  00000+0 -10885-2 0  9994
2 51639  87.8908 141.1841 0001687 101.7231 258.4085 13.10376957140350
