<?xml version="1.0" encoding="UTF-8"?>
<ndm xmlns:xsi="http://www.w3.org/2001/XMLSchema-instance" xsi:noNamespaceSchemaLocation="https://sanaregistry.org/r/ndmxml_unqualified/ndmxml-2.0.0-master-2.0.xsd">
<omm id="CCSDS_OMM_VERS" version="2.0">
<header><CREATION_DATE/><ORIGINATOR/></header><body><segment><metadata><OBJECT_NAME>ONEWEB-0435</OBJECT_NAME><OBJECT_ID>2022-012L</OBJECT_ID><CENTER_NAME>EARTH</CENTER_NAME><REF_FRAME>TEME</REF_FRAME><TIME_SYSTEM>UTC</TIME_SYSTEM><MEAN_ELEMENT_THEORY>SGP4</MEAN_ELEMENT_THEORY></metadata><data><meanElements><EPOCH>2025-01-06T18:53:15.215424</EPOCH><MEAN_MOTION>13.10375101</MEAN_MOTION><ECCENTRICITY>.0001104</ECCENTRICITY><INCLINATION>87.8916</INCLINATION><RA_OF_ASC_NODE>141.1470</RA_OF_ASC_NODE><ARG_OF_PERICENTER>115.7088</ARG_OF_PERICENTER><MEAN_ANOMALY>244.4153</MEAN_ANOMALY></meanElements><tleParameters><EPHEMERIS_TYPE>0</EPHEMERIS_TYPE><CLASSIFICATION_TYPE>U</CLASSIFICATION_TYPE><NORAD_CAT_ID>51632</NORAD_CAT_ID><ELEMENT_SET_NO>999</ELEMENT_SET_NO><REV_AT_EPOCH>14165</REV_AT_EPOCH><BSTAR>-.18688E-2</BSTAR><MEAN_MOTION_DOT>-.64E-5</MEAN_MOTION_DOT><MEAN_MOTION_DDOT>0</MEAN_MOTION_DDOT></tleParameters></data></segment></body></omm>
<omm id="CCSDS_OMM_VERS" version="2.0">
<header><CREATION_DATE/><ORIGINATOR/></header><body><segment><metadata><OBJECT_NAME>ONEWEB-0436</OBJECT_NAME><OBJECT_ID>2022-012M</OBJECT_ID><CENTER_NAME>EARTH</CENTER_NAME><REF_FRAME>TEME</REF_FRAME><TIME_SYSTEM>UTC</TIME_SYSTEM><MEAN_ELEMENT_THEORY>SGP4</MEAN_ELEMENT_THEORY></metadata><data><meanElements><EPOCH>2025-01-06T19:44:38.742432</EPOCH><MEAN_MOTION>13.17648407</MEAN_MOTION><ECCENTRICITY>.0001571</ECCENTRICITY><INCLINATION>87.9104</INCLINATION><RA_OF_ASC_NODE>110.7166</RA_OF_ASC_NODE><ARG_OF_PERICENTER>115.9767</ARG_OF_PERICENTER><MEAN_ANOMALY>244.1526</MEAN_ANOMALY></meanElements><tleParameters><EPHEMERIS_TYPE>0</EPHEMERIS_TYPE><CLASSIFICATION_TYPE>U</CLASSIFICATION_TYPE><NORAD_CAT_ID>51633</NORAD_CAT_ID><ELEMENT_SET_NO>999</ELEMENT_SET_NO><REV_AT_EPOCH>14565</REV_AT_EPOCH><BSTAR>-.327E-3</BSTAR><MEAN_MOTION_DOT>-.114E-5</MEAN_MOTION_DOT><MEAN_MOTION_DDOT>0</MEAN_MOTION_DDOT></tleParameters></data></segment></body></omm>
<omm id="CCSDS_OMM_VERS" version="2.0">
<header><CREATION_DATE/><ORIGINATOR/></header><body><segment><metadata><OBJECT_NAME>ONEWEB-0438</OBJECT_NAME><OBJECT_ID>2022-012N</OBJECT_ID><CENTER_NAME>EARTH</CENTER_NAME><REF_FRAME>TEME</REF_FRAME><TIME_SYSTEM>UTC</TIME_SYSTEM><MEAN_ELEMENT_THEORY>SGP4</MEAN_ELEMENT_THEORY></metadata><data><meanElements><EPOCH>2025-01-06T18:29:23.300448</EPOCH><MEAN_MOTION>13.10343644</MEAN_MOTION><ECCENTRICITY>.0001559</ECCENTRICITY><INCLINATION>87.8916</INCLINATION><RA_OF_ASC_NODE>141.1516</RA_OF_ASC_NODE><ARG_OF_PERICENTER>95.0851</ARG_OF_PERICENTER><MEAN_ANOMALY>265.0454</MEAN_ANOMALY></meanElements><tleParameters><EPHEMERIS_TYPE>0</EPHEMERIS_TYPE><CLASSIFICATION_TYPE>U</CLASSIFICATION_TYPE><NORAD_CAT_ID>51634</NORAD_CAT_ID><ELEMENT_SET_NO>999</ELEMENT_SET_NO><REV_AT_EPOCH>14169</REV_AT_EPOCH><BSTAR>-.93287E-2</BSTAR><MEAN_MOTION_DOT>-.3241E-4</MEAN_MOTION_DOT><MEAN_MOTION_DDOT>0</MEAN_MOTION_DDOT></tleParameters></data></segment></body></omm>
<omm id="CCSDS_OMM_VERS" version="2.0">
<header><CREATION_DATE/><ORIGINATOR/></header><body><segment><metadata><OBJECT_NAME>ONEWEB-0439</OBJECT_NAME><OBJECT_ID>2022-012P</OBJECT_ID><CENTER_NAME>EARTH</CENTER_NAME><REF_FRAME>TEME</REF_FRAME><TIME_SYSTEM>UTC</TIME_SYSTEM><MEAN_ELEMENT_THEORY>SGP4</MEAN_ELEMENT_THEORY></metadata><data><meanElements><EPOCH>2025-01-06T18:34:08.239872</EPOCH><MEAN_MOTION>13.10370642</MEAN_MOTION><ECCENTRICITY>.0001456</ECCENTRICITY><INCLINATION>87.8910</INCLINATION><RA_OF_ASC_NODE>141.1365</RA_OF_ASC_NODE><ARG_OF_PERICENTER>103.7150</ARG_OF_PERICENTER><MEAN_ANOMALY>256.4140</MEAN_ANOMALY></meanElements><tleParameters><EPHEMERIS_TYPE>0</EPHEMERIS_TYPE><CLASSIFICATION_TYPE>U</CLASSIFICATION_TYPE><NORAD_CAT_ID>51635</NORAD_CAT_ID><ELEMENT_SET_NO>999</ELEMENT_SET_NO><REV_AT_EPOCH>14166</REV_AT_EPOCH><BSTAR>-.18778E-2</BSTAR><MEAN_MOTION_DOT>-.643E-5</MEAN_MOTION_DOT><MEAN_MOTION_DDOT>0</MEAN_MOTION_DDOT></tleParameters></data></segment></body></omm>
<omm id="CCSDS_OMM_VERS" version="2.0">
<header><CREATION_DATE/><ORIGINATOR/></header><body><segment><metadata><OBJECT_NAME>ONEWEB-0442</OBJECT_NAME><OBJECT_ID>2022-012Q</OBJECT_ID><CENTER_NAME>EARTH</CENTER_NAME><REF_FRAME>TEME</REF_FRAME><TIME_SYSTEM>UTC</TIME_SYSTEM><MEAN_ELEMENT_THEORY>SGP4</MEAN_ELEMENT_THEORY></metadata><data><meanElements><EPOCH>2025-01-06T08:37:38.702208</EPOCH><MEAN_MOTION>13.17651239</MEAN_MOTION><ECCENTRICITY>.0002258</ECCENTRICITY><INCLINATION>87.9106</INCLINATION><RA_OF_ASC_NODE>110.8504</RA_OF_ASC_NODE><ARG_OF_PERICENTER>93.0583</ARG_OF_PERICENTER><MEAN_ANOMALY>267.0807</MEAN_ANOMALY></meanElements><tleParameters><EPHEMERIS_TYPE>0</EPHEMERIS_TYPE><CLASSIFICATION_TYPE>U</CLASSIFICATION_TYPE><NORAD_CAT_ID>51636</NORAD_CAT_ID><ELEMENT_SET_NO>999</ELEMENT_SET_NO><REV_AT_EPOCH>14429</REV_AT_EPOCH><BSTAR>.21259E-3</BSTAR><MEAN_MOTION_DOT>.95E-6</MEAN_MOTION_DOT><MEAN_MOTION_DDOT>0</MEAN_MOTION_DDOT></tleParameters></data></segment></body></omm>
<omm id="CCSDS_OMM_VERS" version="2.0">
<header><CREATION_DATE/><ORIGINATOR/></header><body><segment><metadata><OBJECT_NAME>ONEWEB-0443</OBJECT_NAME><OBJECT_ID>2022-012R</OBJECT_ID><CENTER_NAME>EARTH</CENTER_NAME><REF_FRAME>TEME</REF_FRAME><TIME_SYSTEM>UTC</TIME_SYSTEM><MEAN_ELEMENT_THEORY>SGP4</MEAN_ELEMENT_THEORY></metadata><data><meanElements><EPOCH>2025-01-06T12:44:17.114496</EPOCH><MEAN_MOTION>13.17651237</MEAN_MOTION><ECCENTRICITY>.0001506</ECCENTRICITY><INCLINATION>87.9109</INCLINATION><RA_OF_ASC_NODE>110.8280</RA_OF_ASC_NODE><ARG_OF_PERICENTER>93.4378</ARG_OF_PERICENTER><MEAN_ANOMALY>266.6926</MEAN_ANOMALY></meanElements><tleParameters><EPHEMERIS_TYPE>0</EPHEMERIS_TYPE><CLASSIFICATION_TYPE>U</CLASSIFICATION_TYPE><NORAD_CAT_ID>51637</NORAD_CAT_ID><ELEMENT_SET_NO>999</ELEMENT_SET_NO><REV_AT_EPOCH>14436</REV_AT_EPOCH><BSTAR>.10689E-3</BSTAR><MEAN_MOTION_DOT>.54E-6</MEAN_MOTION_DOT><MEAN_MOTION_DDOT>0</MEAN_MOTION_DDOT></tleParameters></data></segment></body></omm>
<omm id="CCSDS_OMM_VERS" version="2.0">
<header><CREATION_DATE/><ORIGINATOR/></header><body><segment><metadata><OBJECT_NAME>ONEWEB-0444</OBJECT_NAME><OBJECT_ID>2022-012S</OBJECT_ID><CENTER_NAME>EARTH</CENTER_NAME><REF_FRAME>TEME</REF_FRAME><TIME_SYSTEM>UTC</TIME_SYSTEM><MEAN_ELEMENT_THEORY>SGP4</MEAN_ELEMENT_THEORY></metadata><data><meanElements><EPOCH>2025-01-06T09:10:01.677504</EPOCH><MEAN_MOTION>13.10370280</MEAN_MOTION><ECCENTRICITY>.0001332</ECCENTRICITY><INCLINATION>87.8907</INCLINATION><RA_OF_ASC_NODE>141.2257</RA_OF_ASC_NODE><ARG_OF_PERICENTER>104.1441</ARG_OF_PERICENTER><MEAN_ANOMALY>255.9835</MEAN_ANOMALY></meanElements><tleParameters><EPHEMERIS_TYPE>0</EPHEMERIS_TYPE><CLASSIFICATION_TYPE>U</CLASSIFICATION_TYPE><NORAD_CAT_ID>51638</NORAD_CAT_ID><ELEMENT_SET_NO>999</ELEMENT_SET_NO><REV_AT_EPOCH>14034</REV_AT_EPOCH><BSTAR>-.60918E-3</BSTAR><MEAN_MOTION_DOT>-.2E-5</MEAN_MOTION_DOT><MEAN_MOTION_DDOT>0</MEAN_MOTION_DDOT></tleParameters></data></segment></body></omm>
<omm id="CCSDS_OMM_VERS" version="2.0">
<header><CREATION_DATE/><ORIGINATOR/></header><body><segment><metadata><OBJECT_NAME>ONEWEB-0445</OBJECT_NAME><OBJECT_ID>2022-012T</OBJECT_ID><CENTER_NAME>EARTH</CENTER_NAME><REF_FRAME>TEME</REF_FRAME><TIME_SYSTEM>UTC</TIME_SYSTEM><MEAN_ELEMENT_THEORY>SGP4</MEAN_ELEMENT_THEORY></metadata><data><meanElements><EPOCH>2025-01-06T09:41:05.408448</EPOCH><MEAN_MOTION>13.10376957</MEAN_MOTION><ECCENTRICITY>.0001687</ECCENTRICITY><INCLINATION>87.8908</INCLINATION><RA_OF_ASC_NODE>141.1841</RA_OF_ASC_NODE><ARG_OF_PERICENTER>101.7231</ARG_OF_PERICENTER><MEAN_ANOMALY>258.4085</MEAN_ANOMALY></meanElements><tleParameters><EPHEMERIS_TYPE>0</EPHEMERIS_TYPE><CLASSIFICATION_TYPE>U</CLASSIFICATION_TYPE><NORAD_CAT_ID>51639</NORAD_CAT_ID><ELEMENT_SET_NO>999</ELEMENT_SET_NO><REV_AT_EPOCH>14035</REV_AT_EPOCH><BSTAR>-.10885E-2</BSTAR><MEAN_MOTION_DOT>-.367E-5</MEAN_MOTION_DOT><MEAN_MOTION_DDOT>0</MEAN_MOTION_DDOT></tleParameters></data></segment></body></omm>

</ndm>
